[{"OBJECT_NAME":"STARLINK-30941","OBJECT_ID":"2023-186C","EPOCH":"2026-03-09T22:00:01.999584","MEAN_MOTION":15.20411932,"ECCENTRICITY":0.00023031,"INCLINATION":43.0007,"RA_OF_ASC_NODE":65.7447,"ARG_OF_PERICENTER":254.5511,"MEAN_ANOMALY":19.3281,"EPHEMERIS_TYPE":0,"CLASSIFICATION_TYPE":"U","NORAD_CAT_ID":58475,"ELEMENT_SET_NO":999,"REV_AT_EPOCH":552,"BSTAR":0.084936968,"MEAN_MOTION_DOT":0.02068285,"MEAN_MOTION_DDOT":0},{"OBJECT_NAME":"OBJECT L","OBJECT_ID":"2025-155L","EPOCH":"2026-03-09T22:37:59.438784","MEAN_MOTION":15.35424042,"ECCENTRICITY":0.00089978,"INCLINATION":97.4398,"RA_OF_ASC_NODE":38.3429,"ARG_OF_PERICENTER":138.4507,"MEAN_ANOMALY":221.7422,"EPHEMERIS_TYPE":0,"CLASSIFICATION_TYPE":"U","NORAD_CAT_ID":64886,"ELEMENT_SET_NO":999,"REV_AT_EPOCH":6567,"BSTAR":0.0010049858,"MEAN_MOTION_DOT":0.00034663,"MEAN_MOTION_DDOT":0}]
